[
  {
    "OBJECT_NAME": "STARLINK-6346",
    "OBJECT_ID": "23094AB",
    "EPOCH": "2025-11-11T06:55:20.195616",
    "MEAN_MOTION": 15.02531458,
    "ECCENTRICITY": 0.0001613,
    "INCLINATION": 43.0002,
    "RA_OF_ASC_NODE": 301.1733,
    "ARG_OF_PERICENTER": 267.5185,
    "MEAN_ANOMALY": 92.5472,
    "EPHEMERIS_TYPE": 0,
    "CLASSIFICATION_TYPE": "U",
    "NORAD_CAT_ID": 57243,
    "ELEMENT_SET_NO": 999,
    "REV_AT_EPOCH": 12945,
    "BSTAR": 1.4632999999999999e-05,
    "MEAN_MOTION_DOT": -6e-08,
    "MEAN_MOTION_DDOT": 0.0,
    "TLE_LINE1": "1 57243U 23094AB  25315.28842819 -.00000006  00000+0  14633-4 0  9994",
    "TLE_LINE2": "2 57243  43.0002 301.1733 0001613 267.5185  92.5472 15.02531458129459",
    "COMMENT": "Grouped by shell and plane from TLE"
  },
  {
    "OBJECT_NAME": "STARLINK-5610",
    "OBJECT_ID": "23094AC",
    "EPOCH": "2025-11-11T06:40:57.311040",
    "MEAN_MOTION": 15.02533682,
    "ECCENTRICITY": 0.0001485,
    "INCLINATION": 43.0056,
    "RA_OF_ASC_NODE": 301.0968,
    "ARG_OF_PERICENTER": 262.9199,
    "MEAN_ANOMALY": 97.1475,
    "EPHEMERIS_TYPE": 0,
    "CLASSIFICATION_TYPE": "U",
    "NORAD_CAT_ID": 57244,
    "ELEMENT_SET_NO": 999,
    "REV_AT_EPOCH": 12945,
    "BSTAR": 3.3028e-05,
    "MEAN_MOTION_DOT": 2.42e-06,
    "MEAN_MOTION_DDOT": 0.0,
    "TLE_LINE1": "1 57244U 23094AC  25315.27844110  .00000242  00000+0  33028-4 0  9990",
    "TLE_LINE2": "2 57244  43.0056 301.0968 0001485 262.9199  97.1475 15.02533682129454",
    "COMMENT": "Grouped by shell and plane from TLE"
  },
  {
    "OBJECT_NAME": "STARLINK-5587",
    "OBJECT_ID": "23094AD",
    "EPOCH": "2025-11-11T00:22:52.872672",
    "MEAN_MOTION": 15.02508133,
    "ECCENTRICITY": 8.18e-05,
    "INCLINATION": 43.0004,
    "RA_OF_ASC_NODE": 302.5633,
    "ARG_OF_PERICENTER": 278.5208,
    "MEAN_ANOMALY": 81.5542,
    "EPHEMERIS_TYPE": 0,
    "CLASSIFICATION_TYPE": "U",
    "NORAD_CAT_ID": 57245,
    "ELEMENT_SET_NO": 999,
    "REV_AT_EPOCH": 12941,
    "BSTAR": 0.0,
    "MEAN_MOTION_DOT": -1.805e-05,
    "MEAN_MOTION_DDOT": 0.0,
    "TLE_LINE1": "1 57245U 23094AD  25315.01588973 -.00001805  00000+0 -11872-3 0  9995",
    "TLE_LINE2": "2 57245  43.0004 302.5633 0000818 278.5208  81.5542 15.02508133129417",
    "COMMENT": "Grouped by shell and plane from TLE"
  },
  {
    "OBJECT_NAME": "STARLINK-5049",
    "OBJECT_ID": "23094AE",
    "EPOCH": "2025-11-11T06:04:12.118656",
    "MEAN_MOTION": 15.0253171,
    "ECCENTRICITY": 0.0001321,
    "INCLINATION": 43.0058,
    "RA_OF_ASC_NODE": 300.9041,
    "ARG_OF_PERICENTER": 280.0498,
    "MEAN_ANOMALY": 80.0195,
    "EPHEMERIS_TYPE": 0,
    "CLASSIFICATION_TYPE": "U",
    "NORAD_CAT_ID": 57246,
    "ELEMENT_SET_NO": 999,
    "REV_AT_EPOCH": 12945,
    "BSTAR": 0.0,
    "MEAN_MOTION_DOT": -2.037e-05,
    "MEAN_MOTION_DDOT": 0.0,
    "TLE_LINE1": "1 57246U 23094AE  25315.25291804 -.00002037  00000+0 -13580-3 0  9992",
    "TLE_LINE2": "2 57246  43.0058 300.9041 0001321 280.0498  80.0195 15.02531710129450",
    "COMMENT": "Grouped by shell and plane from TLE"
  },
  {
    "OBJECT_NAME": "STARLINK-5039",
    "OBJECT_ID": "23094AF",
    "EPOCH": "2025-11-11T06:36:09.274176",
    "MEAN_MOTION": 15.02542065,
    "ECCENTRICITY": 9.81e-05,
    "INCLINATION": 43.0043,
    "RA_OF_ASC_NODE": 301.0725,
    "ARG_OF_PERICENTER": 271.9226,
    "MEAN_ANOMALY": 88.1504,
    "EPHEMERIS_TYPE": 0,
    "CLASSIFICATION_TYPE": "U",
    "NORAD_CAT_ID": 57247,
    "ELEMENT_SET_NO": 999,
    "REV_AT_EPOCH": 12945,
    "BSTAR": 0.00016624,
    "MEAN_MOTION_DOT": 2.043e-05,
    "MEAN_MOTION_DDOT": 0.0,
    "TLE_LINE1": "1 57247U 23094AF  25315.27510734  .00002043  00000+0  16624-3 0  9998",
    "TLE_LINE2": "2 57247  43.0043 301.0725 0000981 271.9226  88.1504 15.02542065129453",
    "COMMENT": "Grouped by shell and plane from TLE"
  },
  {
    "OBJECT_NAME": "STARLINK-5514",
    "OBJECT_ID": "23094AG",
    "EPOCH": "2025-11-11T06:31:21.873216",
    "MEAN_MOTION": 15.02532823,
    "ECCENTRICITY": 0.0001417,
    "INCLINATION": 43.0063,
    "RA_OF_ASC_NODE": 301.0477,
    "ARG_OF_PERICENTER": 268.258,
    "MEAN_ANOMALY": 91.81,
    "EPHEMERIS_TYPE": 0,
    "CLASSIFICATION_TYPE": "U",
    "NORAD_CAT_ID": 57248,
    "ELEMENT_SET_NO": 999,
    "REV_AT_EPOCH": 12945,
    "BSTAR": 5.789800000000001e-05,
    "MEAN_MOTION_DOT": 5.78e-06,
    "MEAN_MOTION_DDOT": 0.0,
    "TLE_LINE1": "1 57248U 23094AG  25315.27178094  .00000578  00000+0  57898-4 0  9998",
    "TLE_LINE2": "2 57248  43.0063 301.0477 0001417 268.2580  91.8100 15.02532823129451",
    "COMMENT": "Grouped by shell and plane from TLE"
  },
  {
    "OBJECT_NAME": "STARLINK-5517",
    "OBJECT_ID": "23094AH",
    "EPOCH": "2025-11-11T00:05:15.779904",
    "MEAN_MOTION": 15.02529402,
    "ECCENTRICITY": 0.0001544,
    "INCLINATION": 43.0061,
    "RA_OF_ASC_NODE": 302.4196,
    "ARG_OF_PERICENTER": 279.7564,
    "MEAN_ANOMALY": 80.3104,
    "EPHEMERIS_TYPE": 0,
    "CLASSIFICATION_TYPE": "U",
    "NORAD_CAT_ID": 57249,
    "ELEMENT_SET_NO": 999,
    "REV_AT_EPOCH": 12941,
    "BSTAR": 0.0002714,
    "MEAN_MOTION_DOT": 3.464e-05,
    "MEAN_MOTION_DDOT": 0.0,
    "TLE_LINE1": "1 57249U 23094AH  25315.00365486  .00003464  00000+0  27140-3 0  9996",
    "TLE_LINE2": "2 57249  43.0061 302.4196 0001544 279.7564  80.3104 15.02529402129415",
    "COMMENT": "Grouped by shell and plane from TLE"
  },
  {
    "OBJECT_NAME": "STARLINK-5488",
    "OBJECT_ID": "23094AJ",
    "EPOCH": "2025-11-11T06:13:47.221248",
    "MEAN_MOTION": 15.02531461,
    "ECCENTRICITY": 0.0001704,
    "INCLINATION": 43.0032,
    "RA_OF_ASC_NODE": 300.953,
    "ARG_OF_PERICENTER": 275.8503,
    "MEAN_ANOMALY": 84.2145,
    "EPHEMERIS_TYPE": 0,
    "CLASSIFICATION_TYPE": "U",
    "NORAD_CAT_ID": 57250,
    "ELEMENT_SET_NO": 999,
    "REV_AT_EPOCH": 12945,
    "BSTAR": 0.0,
    "MEAN_MOTION_DOT": -4.25e-06,
    "MEAN_MOTION_DDOT": 0.0,
    "TLE_LINE1": "1 57250U 23094AJ  25315.25957432 -.00000425  00000+0 -16376-4 0  9999",
    "TLE_LINE2": "2 57250  43.0032 300.9530 0001704 275.8503  84.2145 15.02531461129458",
    "COMMENT": "Grouped by shell and plane from TLE"
  },
  {
    "OBJECT_NAME": "STARLINK-5513",
    "OBJECT_ID": "23094AK",
    "EPOCH": "2025-11-11T06:23:27.169152",
    "MEAN_MOTION": 15.02484716,
    "ECCENTRICITY": 0.0001431,
    "INCLINATION": 43.0063,
    "RA_OF_ASC_NODE": 301.008,
    "ARG_OF_PERICENTER": 276.3608,
    "MEAN_ANOMALY": 83.7072,
    "EPHEMERIS_TYPE": 0,
    "CLASSIFICATION_TYPE": "U",
    "NORAD_CAT_ID": 57251,
    "ELEMENT_SET_NO": 999,
    "REV_AT_EPOCH": 12945,
    "BSTAR": 0.0,
    "MEAN_MOTION_DOT": -6.225e-05,
    "MEAN_MOTION_DDOT": 0.0,
    "TLE_LINE1": "1 57251U 23094AK  25315.26628668 -.00006225  00000+0 -44674-3 0  9992",
    "TLE_LINE2": "2 57251  43.0063 301.0080 0001431 276.3608  83.7072 15.02484716129457",
    "COMMENT": "Grouped by shell and plane from TLE"
  },
  {
    "OBJECT_NAME": "STARLINK-5511",
    "OBJECT_ID": "23094AL",
    "EPOCH": "2025-11-11T06:02:35.878560",
    "MEAN_MOTION": 15.0254224,
    "ECCENTRICITY": 9.66e-05,
    "INCLINATION": 43.0036,
    "RA_OF_ASC_NODE": 300.8958,
    "ARG_OF_PERICENTER": 273.445,
    "MEAN_ANOMALY": 86.6282,
    "EPHEMERIS_TYPE": 0,
    "CLASSIFICATION_TYPE": "U",
    "NORAD_CAT_ID": 57252,
    "ELEMENT_SET_NO": 999,
    "REV_AT_EPOCH": 12945,
    "BSTAR": 0.0,
    "MEAN_MOTION_DOT": -9.53e-06,
    "MEAN_MOTION_DDOT": 0.0,
    "TLE_LINE1": "1 57252U 23094AL  25315.25180415 -.00000953  00000+0 -55487-4 0  9992",
    "TLE_LINE2": "2 57252  43.0036 300.8958 0000966 273.4450  86.6282 15.02542240129456",
    "COMMENT": "Grouped by shell and plane from TLE"
  },
  {
    "OBJECT_NAME": "STARLINK-5516",
    "OBJECT_ID": "23094AM",
    "EPOCH": "2025-11-11T06:21:46.237536",
    "MEAN_MOTION": 15.02538812,
    "ECCENTRICITY": 0.0001073,
    "INCLINATION": 43.0039,
    "RA_OF_ASC_NODE": 300.9965,
    "ARG_OF_PERICENTER": 269.4352,
    "MEAN_ANOMALY": 90.6367,
    "EPHEMERIS_TYPE": 0,
    "CLASSIFICATION_TYPE": "U",
    "NORAD_CAT_ID": 57253,
    "ELEMENT_SET_NO": 999,
    "REV_AT_EPOCH": 12945,
    "BSTAR": 0.00015291,
    "MEAN_MOTION_DOT": 1.863e-05,
    "MEAN_MOTION_DDOT": 0.0,
    "TLE_LINE1": "1 57253U 23094AM  25315.26511849  .00001863  00000+0  15291-3 0  9990",
    "TLE_LINE2": "2 57253  43.0039 300.9965 0001073 269.4352  90.6367 15.02538812129454",
    "COMMENT": "Grouped by shell and plane from TLE"
  },
  {
    "OBJECT_NAME": "STARLINK-5490",
    "OBJECT_ID": "23094AN",
    "EPOCH": "2025-11-11T01:07:24.933504",
    "MEAN_MOTION": 15.02539334,
    "ECCENTRICITY": 0.0001388,
    "INCLINATION": 43.0046,
    "RA_OF_ASC_NODE": 301.9383,
    "ARG_OF_PERICENTER": 265.5999,
    "MEAN_ANOMALY": 94.4685,
    "EPHEMERIS_TYPE": 0,
    "CLASSIFICATION_TYPE": "U",
    "NORAD_CAT_ID": 57254,
    "ELEMENT_SET_NO": 999,
    "REV_AT_EPOCH": 12942,
    "BSTAR": 4.9723000000000005e-05,
    "MEAN_MOTION_DOT": 4.68e-06,
    "MEAN_MOTION_DDOT": 0.0,
    "TLE_LINE1": "1 57254U 23094AN  25315.04681636  .00000468  00000+0  49723-4 0  9997",
    "TLE_LINE2": "2 57254  43.0046 301.9383 0001388 265.5999  94.4685 15.02539334129423",
    "COMMENT": "Grouped by shell and plane from TLE"
  },
  {
    "OBJECT_NAME": "STARLINK-5481",
    "OBJECT_ID": "23094AP",
    "EPOCH": "2025-11-11T05:57:44.579232",
    "MEAN_MOTION": 15.02568826,
    "ECCENTRICITY": 7.58e-05,
    "INCLINATION": 43.0041,
    "RA_OF_ASC_NODE": 300.8708,
    "ARG_OF_PERICENTER": 252.3106,
    "MEAN_ANOMALY": 107.7654,
    "EPHEMERIS_TYPE": 0,
    "CLASSIFICATION_TYPE": "U",
    "NORAD_CAT_ID": 57255,
    "ELEMENT_SET_NO": 999,
    "REV_AT_EPOCH": 12945,
    "BSTAR": 0.00038401,
    "MEAN_MOTION_DOT": 4.992e-05,
    "MEAN_MOTION_DDOT": 0.0,
    "TLE_LINE1": "1 57255U 23094AP  25315.24843263  .00004992  00000+0  38401-3 0  9992",
    "TLE_LINE2": "2 57255  43.0041 300.8708 0000758 252.3106 107.7654 15.02568826129457",
    "COMMENT": "Grouped by shell and plane from TLE"
  }
]